NORAD_CAT_ID,OBJECT_NAME,OBJECT_TYPE,EPOCH,MEAN_MOTION,ECCENTRICITY,INCLINATION,RA_OF_ASC_NODE,ARG_OF_PERICENTER,MEAN_ANOMALY,BSTAR,MEAN_MOTION_DOT,MEAN_MOTION_DDOT,TLE_LINE0,TLE_LINE1,TLE_LINE2,SEMIMAJOR_AXIS,PERIOD,APOGEE,PERIGEE,DECAYED
50819.0,STARLINK-3327,PAYLOAD,2022-01-11 20:00:01,15.94619862,0.005376,53.2176,175.581,179.6599,214.4858,-0.0020242,-0.00917173,0.00026866,0 STARLINK-3327,1 50819U 22001S   22011.83334491 -.00917173  26866-3 -20242-2 0  9992,2 50819  53.2176 175.5810 0053760 179.6599 214.4858 15.94619862  2008,6667.511,90.304,325.22,253.531,0.0
50819.0,STARLINK-3327,PAYLOAD,2022-01-12 06:00:00,15.93870223,0.0050395,53.2174,173.4519,181.4333,85.4851,-0.0020669,-0.00881953,0.00024846,0 STARLINK-3327,1 50819U 22001S   22012.25001157 -.00881953  24846-3 -20669-2 0  9994,2 50819  53.2174 173.4519 0050395 181.4333  85.4851 15.93870223  2061,6669.601,90.346,325.078,257.855,0.0
50819.0,STARLINK-3327,PAYLOAD,2022-01-12 14:00:01,15.93305522,0.0047365,53.2177,171.7528,182.4373,197.8931,-0.0022713,-0.00924839,0.00026916,0 STARLINK-3327,1 50819U 22001S   22012.58334491 -.00924839  26916-3 -22713-2 0  9993,2 50819  53.2177 171.7528 0047365 182.4373 197.8931 15.93305522  1435,6671.177,90.378,324.64,261.444,0.0
50819.0,STARLINK-3327,PAYLOAD,2022-01-12 16:00:00,15.93134505,0.0046663999999999,53.2175,171.3286,182.4783,316.1056,-0.0021736,-0.00874317,0.00024282,0 STARLINK-3327,1 50819U 22001S   22012.66667824 -.00874317  24282-3 -21736-2 0  9994,2 50819  53.2175 171.3286 0046664 182.4783 316.1056 15.93134505  2139,6671.654,90.388,324.652,262.387,0.0
50819.0,STARLINK-3327,PAYLOAD,2022-01-12 22:00:00,15.92696021,0.0044346,53.2173,170.0556,185.3859,307.6679,-0.0022526,-0.00875368,0.00024229,0 STARLINK-3327,1 50819U 22001S   22012.91667824 -.00875368  24229-3 -22526-2 0  9998,2 50819  53.2173 170.0556 0044346 185.3859 307.6679 15.92696021  2179,6672.879,90.413,324.335,265.152,0.0
50819.0,STARLINK-3327,PAYLOAD,2022-01-13 14:00:01,15.91545934,0.0038758,53.2174,166.662,187.7856,168.5817,-0.0025817,-0.009215,0.00026283,0 STARLINK-3327,1 50819U 22001S   22013.58334491 -.00921500  26283-3 -25817-2 0  9991,2 50819  53.2174 166.6620 0038758 187.7856 168.5817 15.91545934  2270,6676.093000000003,90.478,323.833,272.083,0.0
50819.0,STARLINK-3327,PAYLOAD,2022-01-13 22:00:00,15.90947715,0.003571,53.2172,164.9691,191.1274,275.847,-0.0026151,-0.00894878,0.00024785,0 STARLINK-3327,1 50819U 22001S   22013.91667824 -.00894878  24785-3 -26151-2 0  9991,2 50819  53.2172 164.9691 0035710 191.1274 275.8470 15.90947715  1644,6677.767,90.512,323.478,275.785,0.0
50819.0,STARLINK-3327,PAYLOAD,2022-01-14 06:00:00,15.90349197,0.0032924,53.2175,163.2743,193.722,23.1583,-0.0026439,-0.00869251,0.00023386,0 STARLINK-3327,1 50819U 22001S   22014.25001157 -.00869251  23386-3 -26439-2 0  9992,2 50819  53.2175 163.2743 0032924 193.7220  23.1583 15.90349197  2381,6679.441999999999,90.546,323.298,279.316,0.0
50819.0,STARLINK-3327,PAYLOAD,2022-01-14 14:00:01,15.89784659,0.0030102,53.2176,161.5844,196.4084,129.6595,-0.0028863,-0.0091367,0.00025447,0 STARLINK-3327,1 50819U 22001S   22014.58334491 -.00913670  25447-3 -28863-2 0  9996,2 50819  53.2176 161.5844 0030102 196.4084 129.6595 15.89784659  2434,6681.023,90.578,322.999,282.777,0.0
50819.0,STARLINK-3327,PAYLOAD,2022-01-14 22:00:00,15.89199889,0.0027526,53.2171,159.8956,199.1394,235.4191,-0.0029991,-0.00915121,0.00025379,0 STARLINK-3327,1 50819U 22001S   22014.91667824 -.00915121  25379-3 -29991-2 0  9992,2 50819  53.2171 159.8956 0027526 199.1394 235.4191 15.89199889  2492,6682.6619999999975,90.612,322.922,286.132,0.0
50819.0,STARLINK-3327,PAYLOAD,2022-01-15 04:00:00,15.88760018,0.0025202,53.2174,158.6276,202.245,223.2216,-0.0030827,-0.00914788,0.00025258,0 STARLINK-3327,1 50819U 22001S   22015.16667824 -.00914788  25258-3 -30827-2 0  9994,2 50819  53.2174 158.6276 0025202 202.2450 223.2216 15.88760018  2530,6683.895,90.637,322.605,288.916,0.0
50819.0,STARLINK-3327,PAYLOAD,2022-01-15 14:00:01,15.88019209,0.0022235,53.2174,156.5199,205.285,84.2148,-0.0031594,-0.00897739,0.00024246,0 STARLINK-3327,1 50819U 22001S   22015.58335648 -.00897739  24246-3 -31594-2 0  9990,2 50819  53.2174 156.5199 0022235 205.2850  84.2148 15.88019209  2595,6685.974,90.679,322.705,292.973,0.0
50819.0,STARLINK-3327,PAYLOAD,2022-01-15 22:00:01,15.8744638,0.0019458,53.2171,154.835,211.5642,184.31,-0.0033636,-0.00923927,0.00025403,0 STARLINK-3327,1 50819U 22001S   22015.91668981 -.00923927  25403-3 -33636-2 0  9990,2 50819  53.2171 154.8350 0019458 211.5642 184.3100 15.87446380  2654,6687.581999999999,90.712,322.46,296.434,0.0
50819.0,STARLINK-3327,PAYLOAD,2022-01-16 06:00:00,15.86843428,0.0016602,53.2172,153.1492,216.9041,284.5868,-0.0033501,-0.00815895,0.0,0 STARLINK-3327,1 50819U 22001S   22016.25001157 -.00815895  00000-0 -33501-2 0  9992,2 50819  53.2172 153.1492 0016602 216.9041 284.5868 15.86843428  2707,6689.276,90.746,322.247,300.036,0.0
50819.0,STARLINK-3327,PAYLOAD,2022-01-16 14:00:01,15.86252909,0.001434,53.2173,151.4685,224.0067,22.4563,-0.0034216,-0.00807047,0.0,0 STARLINK-3327,1 50819U 22001S   22016.58334491 -.00807047  00000-0 -34216-2 0  9992,2 50819  53.2173 151.4685 0014340 224.0067  22.4563 15.86252909  2077,6690.936,90.78,322.396,303.206,0.0
50819.0,STARLINK-3327,PAYLOAD,2022-01-16 22:00:00,15.85686892,0.0012559,53.2171,149.78799999999995,233.1649,117.558,-0.0036844,-0.00839922,0.0,0 STARLINK-3327,1 50819U 22001S   22016.91667824 -.00839922  00000-0 -36844-2 0  9994,2 50819  53.2171 149.7880 0012559 233.1649 117.5580 15.85686892  2121,6692.528,90.812,322.798,305.988,0.0
50819.0,STARLINK-3327,PAYLOAD,2022-01-17 06:00:00,15.85095821,0.0010489,53.2173,148.1063,245.5594,208.7303,-0.0037638,-0.0083209999999999,0.0,0 STARLINK-3327,1 50819U 22001S   22017.25001157 -.00832100  00000-0 -37638-2 0  9996,2 50819  53.2173 148.1063 0010489 245.5594 208.7303 15.85095821  2868,6694.191999999999,90.846,323.078,309.035,0.0
50819.0,STARLINK-3327,PAYLOAD,2022-01-17 14:00:01,15.84495343,0.0009049,53.2175,146.43,259.2858,297.8673,-0.0037478,-0.00805841,0.0,0 STARLINK-3327,1 50819U 22001S   22017.58334491 -.00805841  00000-0 -37478-2 0  9996,2 50819  53.2175 146.4300 0009049 259.2858 297.8673 15.84495343  2232,6695.8830000000025,90.881,323.807,311.689,0.0
50819.0,STARLINK-3327,PAYLOAD,2022-01-17 22:00:00,15.83911822,0.0007524,53.2171,144.7535,267.6261,31.6808,-0.0038698,-0.00807626,0.0,0 STARLINK-3327,1 50819U 22001S   22017.91667824 -.00807626  00000-0 -38698-2 0  9990,2 50819  53.2171 144.7535 0007524 267.6261  31.6808 15.83911822  2289,6697.528,90.914,324.432,314.353,0.0
50819.0,STARLINK-3327,PAYLOAD,2022-01-18 14:00:01,15.82758006,0.000293,53.2171,141.4046,247.0027,254.4968,-0.0042775,-0.00839013,0.0,0 STARLINK-3327,1 50819U 22001S   22018.58334491 -.00839013  00000-0 -42775-2 0  9991,2 50819  53.2171 141.4046 0002930 247.0027 254.4968 15.82758006  3070,6700.781999999997,90.98,324.61,320.684,0.0
50819.0,STARLINK-3327,PAYLOAD,2022-01-18 22:00:00,15.82159697,0.0001356,53.2172,139.7322,203.2589,38.288,-0.0042761,-0.00816839,0.0,0 STARLINK-3327,1 50819U 22001S   22018.91667824 -.00816839  00000-0 -42761-2 0  9993,2 50819  53.2172 139.7322 0001356 203.2589  38.2880 15.82159697  2448,6702.471,91.015,325.245,323.427,0.0
50819.0,STARLINK-3327,PAYLOAD,2022-01-19 06:00:02,15.81503545,0.0001037,53.2166,138.0591,72.7284,268.2676,-0.0039195,-0.00733064,0.0,0 STARLINK-3327,1 50819U 22001S   22019.25002315 -.00733064  00000-0 -39195-2 0  9994,2 50819  53.2166 138.0591 0001037  72.7284 268.2676 15.81503545  3171,6704.325,91.053,326.885,325.495,0.0
50819.0,STARLINK-3327,PAYLOAD,2022-01-19 14:00:01,15.80844879,0.0001127,53.217,136.3918,83.3798,356.221,-0.0034542,-0.00633822,0.0,0 STARLINK-3327,1 50819U 22001S   22019.58334491 -.00633822  00000-0 -34542-2 0  9995,2 50819  53.2170 136.3918 0001127  83.3798 356.2210 15.80844879  2558,6706.187,91.091,328.80800000000005,327.296,0.0
50819.0,STARLINK-3327,PAYLOAD,2022-01-19 22:00:00,15.8040671,0.0001102,53.2172,134.724,90.9513,86.4989,-0.004688,-0.00824312,0.0,0 STARLINK-3327,1 50819U 22001S   22019.91667824 -.00824312  00000-0 -46880-2 0  9995,2 50819  53.2172 134.7240 0001102  90.9513  86.4989 15.80406710  3286,6707.427,91.116,330.031,328.552,0.0
50819.0,STARLINK-3327,PAYLOAD,2022-01-20 14:00:01,15.79235034,0.0001122,53.2174,131.3928,59.8903,311.309,-0.004944,-0.0082375,0.0,0 STARLINK-3327,1 50819U 22001S   22020.58334491 -.00823750  00000-0 -49440-2 0  9991,2 50819  53.2174 131.3928 0001122  59.8903 311.3090 15.79235034  2710,6710.744000000002,91.183,333.362,331.856,0.0
50819.0,STARLINK-3327,PAYLOAD,2022-01-20 22:00:00,15.78648559,0.0001017,53.2173,129.7286,78.845,28.1737,-0.0050692,-0.00822408,0.0,0 STARLINK-3327,1 50819U 22001S   22020.91667824 -.00822408  00000-0 -50692-2 0  9997,2 50819  53.2173 129.7286 0001017  78.8450  28.1737 15.78648559  3449,6712.406,91.217,334.9530000000001,333.588,0.0
50819.0,STARLINK-3327,PAYLOAD,2022-01-21 14:00:01,15.77476085,0.0001262,53.2175,126.4065,54.5348,242.0091,-0.0053387,-0.00821554,0.0,0 STARLINK-3327,1 50819U 22001S   22021.58334491 -.00821554  00000-0 -53387-2 0  9997,2 50819  53.2175 126.4065 0001262  54.5348 242.0091 15.77476085  2877,6715.731,91.285,338.444,336.749,0.0
50819.0,STARLINK-3327,PAYLOAD,2022-01-21 20:00:01,15.77036861,0.0001097,53.2172,125.1616,75.3891,201.5004,-0.0054376999999999,-0.00820507,0.0,0 STARLINK-3327,1 50819U 22001S   22021.83334491 -.00820507  00000-0 -54377-2 0  9992,2 50819  53.2172 125.1616 0001097  75.3891 201.5004 15.77036861  3589,6716.978,91.31,339.58,338.106,0.0
50819.0,STARLINK-3327,PAYLOAD,2022-01-21 22:00:00,15.76889986,9.940000000000004e-05,53.2173,124.7465,75.3009,314.9503,-0.0054723,-0.00820307,0.0,0 STARLINK-3327,1 50819U 22001S   22021.91667824 -.00820307  00000-0 -54723-2 0  9993,2 50819  53.2173 124.7465 0000994  75.3009 314.9503 15.76889986  2926,6717.395,91.319,339.92800000000005,338.593,0.0
